<?xml version="1.0" encoding="UTF-8"?>
<ndm xmlns:xsi="http://www.w3.org/2001/XMLSchema-instance" xsi:noNamespaceSchemaLocation="https://sanaregistry.org/r/ndmxml_unqualified/ndmxml-2.0.0-master-2.0.xsd">
<omm id="CCSDS_OMM_VERS" version="2.0">
<header><CREATION_DATE/><ORIGINATOR/></header><body><segment><metadata><OBJECT_NAME>ORBCOMM FM20</OBJECT_NAME><OBJECT_ID>1998-046D</OBJECT_ID><CENTER_NAME>EARTH</CENTER_NAME><REF_FRAME>TEME</REF_FRAME><TIME_SYSTEM>UTC</TIME_SYSTEM><MEAN_ELEMENT_THEORY>SGP4</MEAN_ELEMENT_THEORY></metadata><data><meanElements><EPOCH>2024-07-16T14:48:55.208160</EPOCH><MEAN_MOTION>14.35452582</MEAN_MOTION><ECCENTRICITY>.0001403</ECCENTRICITY><INCLINATION>44.9963</INCLINATION><RA_OF_ASC_NODE>328.4962</RA_OF_ASC_NODE><ARG_OF_PERICENTER>221.0396</ARG_OF_PERICENTER><MEAN_ANOMALY>139.0346</MEAN_ANOMALY></meanElements><tleParameters><EPHEMERIS_TYPE>0</EPHEMERIS_TYPE><CLASSIFICATION_TYPE>U</CLASSIFICATION_TYPE><NORAD_CAT_ID>25416</NORAD_CAT_ID><ELEMENT_SET_NO>999</ELEMENT_SET_NO><REV_AT_EPOCH>35601</REV_AT_EPOCH><BSTAR>.60235E-3</BSTAR><MEAN_MOTION_DOT>.1606E-4</MEAN_MOTION_DOT><MEAN_MOTION_DDOT>0</MEAN_MOTION_DDOT></tleParameters></data></segment></body></omm>
<omm id="CCSDS_OMM_VERS" version="2.0">
<header><CREATION_DATE/><ORIGINATOR/></header><body><segment><metadata><OBJECT_NAME>ORBCOMM FM16</OBJECT_NAME><OBJECT_ID>1998-046E</OBJECT_ID><CENTER_NAME>EARTH</CENTER_NAME><REF_FRAME>TEME</REF_FRAME><TIME_SYSTEM>UTC</TIME_SYSTEM><MEAN_ELEMENT_THEORY>SGP4</MEAN_ELEMENT_THEORY></metadata><data><meanElements><EPOCH>2024-07-16T19:20:59.542080</EPOCH><MEAN_MOTION>14.36520284</MEAN_MOTION><ECCENTRICITY>.0001855</ECCENTRICITY><INCLINATION>44.9951</INCLINATION><RA_OF_ASC_NODE>322.8439</RA_OF_ASC_NODE><ARG_OF_PERICENTER>57.5536</ARG_OF_PERICENTER><MEAN_ANOMALY>302.5491</MEAN_ANOMALY></meanElements><tleParameters><EPHEMERIS_TYPE>0</EPHEMERIS_TYPE><CLASSIFICATION_TYPE>U</CLASSIFICATION_TYPE><NORAD_CAT_ID>25417</NORAD_CAT_ID><ELEMENT_SET_NO>999</ELEMENT_SET_NO><REV_AT_EPOCH>35598</REV_AT_EPOCH><BSTAR>.97432E-3</BSTAR><MEAN_MOTION_DOT>.2746E-4</MEAN_MOTION_DOT><MEAN_MOTION_DDOT>0</MEAN_MOTION_DDOT></tleParameters></data></segment></body></omm>
<omm id="CCSDS_OMM_VERS" version="2.0">
<header><CREATION_DATE/><ORIGINATOR/></header><body><segment><metadata><OBJECT_NAME>ORBCOMM FM15</OBJECT_NAME><OBJECT_ID>1998-046F</OBJECT_ID><CENTER_NAME>EARTH</CENTER_NAME><REF_FRAME>TEME</REF_FRAME><TIME_SYSTEM>UTC</TIME_SYSTEM><MEAN_ELEMENT_THEORY>SGP4</MEAN_ELEMENT_THEORY></metadata><data><meanElements><EPOCH>2024-07-16T20:17:45.484512</EPOCH><MEAN_MOTION>14.36232261</MEAN_MOTION><ECCENTRICITY>.0001574</ECCENTRICITY><INCLINATION>44.9983</INCLINATION><RA_OF_ASC_NODE>326.8799</RA_OF_ASC_NODE><ARG_OF_PERICENTER>66.5081</ARG_OF_PERICENTER><MEAN_ANOMALY>293.5932</MEAN_ANOMALY></meanElements><tleParameters><EPHEMERIS_TYPE>0</EPHEMERIS_TYPE><CLASSIFICATION_TYPE>U</CLASSIFICATION_TYPE><NORAD_CAT_ID>25418</NORAD_CAT_ID><ELEMENT_SET_NO>999</ELEMENT_SET_NO><REV_AT_EPOCH>35599</REV_AT_EPOCH><BSTAR>.8826E-3</BSTAR><MEAN_MOTION_DOT>.2459E-4</MEAN_MOTION_DOT><MEAN_MOTION_DDOT>0</MEAN_MOTION_DDOT></tleParameters></data></segment></body></omm>
<omm id="CCSDS_OMM_VERS" version="2.0">
<header><CREATION_DATE/><ORIGINATOR/></header><body><segment><metadata><OBJECT_NAME>ORBCOMM FM14</OBJECT_NAME><OBJECT_ID>1998-046G</OBJECT_ID><CENTER_NAME>EARTH</CENTER_NAME><REF_FRAME>TEME</REF_FRAME><TIME_SYSTEM>UTC</TIME_SYSTEM><MEAN_ELEMENT_THEORY>SGP4</MEAN_ELEMENT_THEORY></metadata><data><meanElements><EPOCH>2024-07-16T19:00:36.724608</EPOCH><MEAN_MOTION>14.36428919</MEAN_MOTION><ECCENTRICITY>.0000313</ECCENTRICITY><INCLINATION>44.9973</INCLINATION><RA_OF_ASC_NODE>326.1471</RA_OF_ASC_NODE><ARG_OF_PERICENTER>22.4682</ARG_OF_PERICENTER><MEAN_ANOMALY>337.6179</MEAN_ANOMALY></meanElements><tleParameters><EPHEMERIS_TYPE>0</EPHEMERIS_TYPE><CLASSIFICATION_TYPE>U</CLASSIFICATION_TYPE><NORAD_CAT_ID>25419</NORAD_CAT_ID><ELEMENT_SET_NO>999</ELEMENT_SET_NO><REV_AT_EPOCH>35594</REV_AT_EPOCH><BSTAR>.93576E-3</BSTAR><MEAN_MOTION_DOT>.2627E-4</MEAN_MOTION_DOT><MEAN_MOTION_DDOT>0</MEAN_MOTION_DDOT></tleParameters></data></segment></body></omm>
<omm id="CCSDS_OMM_VERS" version="2.0">
<header><CREATION_DATE/><ORIGINATOR/></header><body><segment><metadata><OBJECT_NAME>ORBCOMM FM13</OBJECT_NAME><OBJECT_ID>1998-046H</OBJECT_ID><CENTER_NAME>EARTH</CENTER_NAME><REF_FRAME>TEME</REF_FRAME><TIME_SYSTEM>UTC</TIME_SYSTEM><MEAN_ELEMENT_THEORY>SGP4</MEAN_ELEMENT_THEORY></metadata><data><meanElements><EPOCH>2024-07-16T20:57:06.142464</EPOCH><MEAN_MOTION>14.35653584</MEAN_MOTION><ECCENTRICITY>.0002758</ECCENTRICITY><INCLINATION>44.9987</INCLINATION><RA_OF_ASC_NODE>331.0309</RA_OF_ASC_NODE><ARG_OF_PERICENTER>29.0253</ARG_OF_PERICENTER><MEAN_ANOMALY>331.0747</MEAN_ANOMALY></meanElements><tleParameters><EPHEMERIS_TYPE>0</EPHEMERIS_TYPE><CLASSIFICATION_TYPE>U</CLASSIFICATION_TYPE><NORAD_CAT_ID>25420</NORAD_CAT_ID><ELEMENT_SET_NO>999</ELEMENT_SET_NO><REV_AT_EPOCH>35501</REV_AT_EPOCH><BSTAR>.80614E-3</BSTAR><MEAN_MOTION_DOT>.2206E-4</MEAN_MOTION_DOT><MEAN_MOTION_DDOT>0</MEAN_MOTION_DDOT></tleParameters></data></segment></body></omm>
<omm id="CCSDS_OMM_VERS" version="2.0">
<header><CREATION_DATE/><ORIGINATOR/></header><body><segment><metadata><OBJECT_NAME>ORBCOMM FM21</OBJECT_NAME><OBJECT_ID>1998-053A</OBJECT_ID><CENTER_NAME>EARTH</CENTER_NAME><REF_FRAME>TEME</REF_FRAME><TIME_SYSTEM>UTC</TIME_SYSTEM><MEAN_ELEMENT_THEORY>SGP4</MEAN_ELEMENT_THEORY></metadata><data><meanElements><EPOCH>2024-07-16T19:51:57.421152</EPOCH><MEAN_MOTION>14.35547545</MEAN_MOTION><ECCENTRICITY>.0000683</ECCENTRICITY><INCLINATION>45.0091</INCLINATION><RA_OF_ASC_NODE>55.6668</RA_OF_ASC_NODE><ARG_OF_PERICENTER>20.9543</ARG_OF_PERICENTER><MEAN_ANOMALY>339.1332</MEAN_ANOMALY></meanElements><tleParameters><EPHEMERIS_TYPE>0</EPHEMERIS_TYPE><CLASSIFICATION_TYPE>U</CLASSIFICATION_TYPE><NORAD_CAT_ID>25475</NORAD_CAT_ID><ELEMENT_SET_NO>999</ELEMENT_SET_NO><REV_AT_EPOCH>34902</REV_AT_EPOCH><BSTAR>.74713E-3</BSTAR><MEAN_MOTION_DOT>.203E-4</MEAN_MOTION_DOT><MEAN_MOTION_DDOT>0</MEAN_MOTION_DDOT></tleParameters></data></segment></body></omm>
<omm id="CCSDS_OMM_VERS" version="2.0">
<header><CREATION_DATE/><ORIGINATOR/></header><body><segment><metadata><OBJECT_NAME>ORBCOMM FM22</OBJECT_NAME><OBJECT_ID>1998-053B</OBJECT_ID><CENTER_NAME>EARTH</CENTER_NAME><REF_FRAME>TEME</REF_FRAME><TIME_SYSTEM>UTC</TIME_SYSTEM><MEAN_ELEMENT_THEORY>SGP4</MEAN_ELEMENT_THEORY></metadata><data><meanElements><EPOCH>2024-07-16T20:22:19.681824</EPOCH><MEAN_MOTION>14.36125039</MEAN_MOTION><ECCENTRICITY>.0001965</ECCENTRICITY><INCLINATION>45.0086</INCLINATION><RA_OF_ASC_NODE>52.5633</RA_OF_ASC_NODE><ARG_OF_PERICENTER>346.7522</ARG_OF_PERICENTER><MEAN_ANOMALY>13.3274</MEAN_ANOMALY></meanElements><tleParameters><EPHEMERIS_TYPE>0</EPHEMERIS_TYPE><CLASSIFICATION_TYPE>U</CLASSIFICATION_TYPE><NORAD_CAT_ID>25476</NORAD_CAT_ID><ELEMENT_SET_NO>999</ELEMENT_SET_NO><REV_AT_EPOCH>34902</REV_AT_EPOCH><BSTAR>.88591E-3</BSTAR><MEAN_MOTION_DOT>.2463E-4</MEAN_MOTION_DOT><MEAN_MOTION_DDOT>0</MEAN_MOTION_DDOT></tleParameters></data></segment></body></omm>
<omm id="CCSDS_OMM_VERS" version="2.0">
<header><CREATION_DATE/><ORIGINATOR/></header><body><segment><metadata><OBJECT_NAME>ORBCOMM FM23</OBJECT_NAME><OBJECT_ID>1998-053C</OBJECT_ID><CENTER_NAME>EARTH</CENTER_NAME><REF_FRAME>TEME</REF_FRAME><TIME_SYSTEM>UTC</TIME_SYSTEM><MEAN_ELEMENT_THEORY>SGP4</MEAN_ELEMENT_THEORY></metadata><data><meanElements><EPOCH>2024-07-17T01:29:57.811488</EPOCH><MEAN_MOTION>14.35599248</MEAN_MOTION><ECCENTRICITY>.0001459</ECCENTRICITY><INCLINATION>45.0090</INCLINATION><RA_OF_ASC_NODE>56.9601</RA_OF_ASC_NODE><ARG_OF_PERICENTER>351.4905</ARG_OF_PERICENTER><MEAN_ANOMALY>8.5917</MEAN_ANOMALY></meanElements><tleParameters><EPHEMERIS_TYPE>0</EPHEMERIS_TYPE><CLASSIFICATION_TYPE>U</CLASSIFICATION_TYPE><NORAD_CAT_ID>25477</NORAD_CAT_ID><ELEMENT_SET_NO>999</ELEMENT_SET_NO><REV_AT_EPOCH>34951</REV_AT_EPOCH><BSTAR>.70673E-3</BSTAR><MEAN_MOTION_DOT>.1914E-4</MEAN_MOTION_DOT><MEAN_MOTION_DDOT>0</MEAN_MOTION_DDOT></tleParameters></data></segment></body></omm>

</ndm>
