ORBCOMM FM20            
1 25416U 98046D   24198.61730565  .00001606  00000+0  60235-3 0  9993
2 25416  44.9963 328.4962 0001403 221.0396 139.0346 14.35452582356010
ORBCOMM FM16            
1 25417U 98046E   24198.80624470  .00002746  00000+0  97432-3 0  9997
2 25417  44.9951 322.8439 0001855  57.5536 302.5491 14.36520284355983
ORBCOMM FM15            
1 25418U 98046F   24198.84566533  .00002459  00000+0  88260-3 0  9997
2 25418  44.9983 326.8799 0001574  66.5081 293.5932 14.36232261355990
ORBCOMM FM14            
1 25419U 98046G   24198.79209172  .00002627  00000+0  93576-3 0  9998
2 25419  44.9973 326.1471 0000313  22.4682 337.6179 14.36428919355943
ORBCOMM FM13            
1 25420U 98046H   24198.87298776  .00002206  00000+0  80614-3 0  9999
2 25420  44.9987 331.0309 0002758  29.0253 331.0747 14.35653584355011
ORBCOMM FM21            
1 25475U 98053A   24198.82774793  .00002030  00000+0  74713-3 0  9998
2 25475  45.0091  55.6668 0000683  20.9543 339.1332 14.35547545349025
ORBCOMM FM22            
1 25476U 98053B   24198.84883891  .00002463  00000+0  88591-3 0  9990
2 25476  45.0086  52.5633 0001965 346.7522  13.3274 14.36125039349025
ORBCOMM FM23            
1 25477U 98053C   24199.06247467  .00001914  00000+0  70673-3 0  9991
2 25477  45.0090  56.9601 0001459 351.4905   8.5917 14.35599248349510
